ONEWEB-0171             
1 48070U 21025AE  25028.34171578 -.00000237  00000+0 -68437-3 0  9996
2 48070  87.8883  60.6298 0001908  98.0752 262.0593 13.13470325187342
ONEWEB-0172             
1 48071U 21025AF  25028.16874248  .00000101  00000+0  24250-3 0  9994
2 48071  87.8885  60.6308 0002011  96.5871 263.5487 13.13469955188210
ONEWEB-0174             
1 48072U 21025AG  25028.37982000  .00000378  00000+0  99924-3 0  9990
2 48072  87.8886  60.6030 0001937  91.8295 268.3055 13.13469649187569
ONEWEB-0175             
1 48073U 21025AH  25028.33219963 -.00000170  00000+0 -49958-3 0  9992
2 48073  87.8878  60.5871 0001927 106.5578 253.5763 13.13469005187210
ONEWEB-0177             
1 48074U 21025AJ  25028.34488751 -.00000238  00000+0 -68585-3 0  9999
2 48074  87.8877  60.5962 0002159  90.4642 269.6734 13.13471050187402
ONEWEB-0178             
1 48075U 21025AK  25028.36249268  .00000105  00000+0  25231-3 0  9992
2 48075  87.8887  60.6263 0002075  92.6081 267.5285 13.13470671187458
ONEWEB-0108             
1 48076U 21025AL  25028.09413821 -.00000027  00000+0 -10966-3 0  9995
2 48076  87.8879  60.6423 0001627  91.8476 268.2839 13.13470589187348
ONEWEB-0169             
1 48077U 21025AM  25028.50677471 -.00000148  00000+0 -43902-3 0  9995
2 48077  87.8881  60.5759 0001625  91.1974 268.9341 13.13470092186058
